start=new Date('2022-01-14T00:00:00.000Z').valueOf();
sats=[{"OBJECT_ID":"2021-104AC","MEAN_ANOMALY":"277.7792","TIME_SYSTEM":"UTC","OBJECT_TYPE":"PAYLOAD","RCS_SIZE":"LARGE","MEAN_ELEMENT_THEORY":"SGP4","EPOCH":"2022-01-13T22:00:00.999936","CENTER_NAME":"EARTH","TLE_LINE1":"1 49434U 21104AC  22013.91667824 -.00657597  00000-0 -25105-1 0  9998","NORAD_CAT_ID":"49434","RA_OF_ASC_NODE":"194.5797","REV_AT_EPOCH":"363","LAUNCH_DATE":"2021-11-13","ARG_OF_PERICENTER":"70.1119","SEMIMAJOR_AXIS":"6858.094","COUNTRY_CODE":"US","MEAN_MOTION":"15.28613161","APOAPSIS":"480.822","GP_ID":"193812489","ECCENTRICITY":"0.00012580","FILE":"3272312","INCLINATION":"53.2175","BSTAR":"-0.02510500000000","REF_FRAME":"TEME","PERIOD":"94.203","MEAN_MOTION_DDOT":"0.0000000000000","EPHEMERIS_TYPE":"0","SITE":"AFETR","CLASSIFICATION_TYPE":"U","DECAY_DATE":null,"ELEMENT_SET_NO":"999","MEAN_MOTION_DOT":"-0.00657597","TLE_LINE2":"2 49434  53.2175 194.5797 0001258  70.1119 277.7792 15.28613161  3633","PERIAPSIS":"479.096","OBJECT_NAME":"STARLINK-3134"},{"TIME_SYSTEM":"UTC","OBJECT_TYPE":"PAYLOAD","RCS_SIZE":"LARGE","CENTER_NAME":"EARTH","TLE_LINE1":"1 49435U 21104AD  22013.91667824 -.00311009  00000-0 -35051-2 0  9996","NORAD_CAT_ID":"49435","EPOCH":"2022-01-13T22:00:00.999936","MEAN_ELEMENT_THEORY":"SGP4","RA_OF_ASC_NODE":"189.7620","OBJECT_ID":"2021-104AD","MEAN_ANOMALY":"69.2193","LAUNCH_DATE":"2021-11-13","COUNTRY_CODE":"US","MEAN_MOTION":"15.62881042","ARG_OF_PERICENTER":"40.4014","SEMIMAJOR_AXIS":"6757.477","REV_AT_EPOCH":"367","INCLINATION":"53.2173","BSTAR":"-0.00350510000000","REF_FRAME":"TEME","APOAPSIS":"380.392","GP_ID":"193812739","FILE":"3272312","ECCENTRICITY":"0.00015540","DECAY_DATE":null,"CLASSIFICATION_TYPE":"U","SITE":"AFETR","MEAN_MOTION_DOT":"-0.00311009","ELEMENT_SET_NO":"999","TLE_LINE2":"2 49435  53.2173 189.7620 0001554  40.4014  69.2193 15.62881042  3672","PERIAPSIS":"378.292","OBJECT_NAME":"STARLINK-3117","MEAN_MOTION_DDOT":"0.0000000000000","PERIOD":"92.138","EPHEMERIS_TYPE":"0"},{"OBJECT_NAME":"STARLINK-3049","TLE_LINE2":"2 49436  53.2156 189.2573 0002702  15.3347  16.2363 15.73225000  3671","PERIAPSIS":"347.871","ELEMENT_SET_NO":"999","MEAN_MOTION_DOT":"0.00015758","SITE":"AFETR","CLASSIFICATION_TYPE":"U","DECAY_DATE":null,"EPHEMERIS_TYPE":"0","PERIOD":"91.532","MEAN_MOTION_DDOT":"0.0000000000000","REF_FRAME":"TEME","BSTAR":"0.00011636000000","INCLINATION":"53.2156","FILE":"3272312","ECCENTRICITY":"0.00027020","GP_ID":"193813991","APOAPSIS":"351.507","ARG_OF_PERICENTER":"15.3347","SEMIMAJOR_AXIS":"6727.824","MEAN_MOTION":"15.73225000","COUNTRY_CODE":"US","LAUNCH_DATE":"2021-11-13","REV_AT_EPOCH":"367","RA_OF_ASC_NODE":"189.2573","MEAN_ELEMENT_THEORY":"SGP4","EPOCH":"2022-01-13T22:00:00.999936","NORAD_CAT_ID":"49436","TLE_LINE1":"1 49436U 21104AE  22013.91667824  .00015758  00000-0  11636-3 0  9991","CENTER_NAME":"EARTH","RCS_SIZE":"LARGE","OBJECT_TYPE":"PAYLOAD","TIME_SYSTEM":"UTC","MEAN_ANOMALY":"16.2363","OBJECT_ID":"2021-104AE"},{"GP_ID":"193814242","APOAPSIS":"351.648","ECCENTRICITY":"0.00028410","FILE":"3272312","INCLINATION":"53.2152","BSTAR":"0.00027421000000","REF_FRAME":"TEME","MEAN_MOTION_DDOT":"0.0000000000000","PERIOD":"91.533","EPHEMERIS_TYPE":"0","CLASSIFICATION_TYPE":"U","SITE":"AFETR","DECAY_DATE":null,"ELEMENT_SET_NO":"999","MEAN_MOTION_DOT":"0.00038055","TLE_LINE2":"2 49437  53.2152 189.2485 0002841  16.7553  17.6723 15.73208118  3674","PERIAPSIS":"347.826","OBJECT_NAME":"STARLINK-3130","OBJECT_ID":"2021-104AF","MEAN_ANOMALY":"17.6723","OBJECT_TYPE":"PAYLOAD","TIME_SYSTEM":"UTC","RCS_SIZE":"LARGE","EPOCH":"2022-01-13T22:00:00.999936","MEAN_ELEMENT_THEORY":"SGP4","NORAD_CAT_ID":"49437","TLE_LINE1":"1 49437U 21104AF  22013.91667824  .00038055  00000-0  27421-3 0  9996","CENTER_NAME":"EARTH","RA_OF_ASC_NODE":"189.2485","REV_AT_EPOCH":"367","LAUNCH_DATE":"2021-11-13","SEMIMAJOR_AXIS":"6727.872","ARG_OF_PERICENTER":"16.7553","COUNTRY_CODE":"US","MEAN_MOTION":"15.73208118"},{"MEAN_ANOMALY":"17.2115","OBJECT_ID":"2021-104AG","RA_OF_ASC_NODE":"189.2449","MEAN_ELEMENT_THEORY":"SGP4","EPOCH":"2022-01-13T22:00:00.999936","TLE_LINE1":"1 49438U 21104AG  22013.91667824  .00024065  00000-0  17520-3 0  9992","NORAD_CAT_ID":"49438","CENTER_NAME":"EARTH","RCS_SIZE":"LARGE","OBJECT_TYPE":"PAYLOAD","TIME_SYSTEM":"UTC","REV_AT_EPOCH":"367","SEMIMAJOR_AXIS":"6727.829","ARG_OF_PERICENTER":"18.0712","MEAN_MOTION":"15.73223308","COUNTRY_CODE":"US","LAUNCH_DATE":"2021-11-13","ECCENTRICITY":"0.00028790","FILE":"3272312","APOAPSIS":"351.631","GP_ID":"193812990","REF_FRAME":"TEME","BSTAR":"0.00017520000000","INCLINATION":"53.2150","EPHEMERIS_TYPE":"0","MEAN_MOTION_DDOT":"0.0000000000000","PERIOD":"91.532","OBJECT_NAME":"STARLINK-3044","PERIAPSIS":"347.757","TLE_LINE2":"2 49438  53.2150 189.2449 0002879  18.0712  17.2115 15.73223308  3675","ELEMENT_SET_NO":"999","MEAN_MOTION_DOT":"0.00024065","CLASSIFICATION_TYPE":"U","SITE":"AFETR","DECAY_DATE":null},{"REF_FRAME":"TEME","BSTAR":"0.00052486000000","INCLINATION":"53.2152","FILE":"3272312","ECCENTRICITY":"0.00031740","APOAPSIS":"351.979","GP_ID":"193813240","OBJECT_NAME":"STARLINK-3108","PERIAPSIS":"347.709","TLE_LINE2":"2 49439  53.2152 189.2376 0003174  21.2452  18.8319 15.73170589  3678","ELEMENT_SET_NO":"999","MEAN_MOTION_DOT":"0.00073608","SITE":"AFETR","CLASSIFICATION_TYPE":"U","DECAY_DATE":null,"EPHEMERIS_TYPE":"0","MEAN_MOTION_DDOT":"0.0000000000000","PERIOD":"91.535","RA_OF_ASC_NODE":"189.2376","MEAN_ELEMENT_THEORY":"SGP4","EPOCH":"2022-01-13T22:00:00.999936","NORAD_CAT_ID":"49439","TLE_LINE1":"1 49439U 21104AH  22013.91667824  .00073608  00000-0  52486-3 0  9990","CENTER_NAME":"EARTH","RCS_SIZE":"LARGE","TIME_SYSTEM":"UTC","OBJECT_TYPE":"PAYLOAD","MEAN_ANOMALY":"18.8319","OBJECT_ID":"2021-104AH","SEMIMAJOR_AXIS":"6727.979","ARG_OF_PERICENTER":"21.2452","COUNTRY_CODE":"US","MEAN_MOTION":"15.73170589","LAUNCH_DATE":"2021-11-13","REV_AT_EPOCH":"367"},{"REV_AT_EPOCH":"367","LAUNCH_DATE":"2021-11-13","SEMIMAJOR_AXIS":"6727.807","ARG_OF_PERICENTER":"17.5859","COUNTRY_CODE":"US","MEAN_MOTION":"15.73230871","OBJECT_ID":"2021-104AJ","MEAN_ANOMALY":"18.6702","OBJECT_TYPE":"PAYLOAD","TIME_SYSTEM":"UTC","RCS_SIZE":"LARGE","MEAN_ELEMENT_THEORY":"SGP4","EPOCH":"2022-01-13T22:00:00.999936","CENTER_NAME":"EARTH","TLE_LINE1":"1 49440U 21104AJ  22013.91667824  .00020257  00000-0  14820-3 0  9994","NORAD_CAT_ID":"49440","RA_OF_ASC_NODE":"189.2444","PERIOD":"91.531","MEAN_MOTION_DDOT":"0.0000000000000","EPHEMERIS_TYPE":"0","CLASSIFICATION_TYPE":"U","SITE":"AFETR","DECAY_DATE":null,"ELEMENT_SET_NO":"999","MEAN_MOTION_DOT":"0.00020257","PERIAPSIS":"347.848","TLE_LINE2":"2 49440  53.2152 189.2444 0002712  17.5859  18.6702 15.73230871  3677","OBJECT_NAME":"STARLINK-3105","APOAPSIS":"351.497","GP_ID":"193813491","ECCENTRICITY":"0.00027120","FILE":"3272312","INCLINATION":"53.2152","BSTAR":"0.00014820000000","REF_FRAME":"TEME"},{"REV_AT_EPOCH":"367","LAUNCH_DATE":"2021-11-13","SEMIMAJOR_AXIS":"6727.979","ARG_OF_PERICENTER":"23.1722","COUNTRY_CODE":"US","MEAN_MOTION":"15.73170429","OBJECT_ID":"2021-104AK","MEAN_ANOMALY":"17.8526","TIME_SYSTEM":"UTC","OBJECT_TYPE":"PAYLOAD","RCS_SIZE":"LARGE","EPOCH":"2022-01-13T22:00:00.999936","MEAN_ELEMENT_THEORY":"SGP4","NORAD_CAT_ID":"49441","TLE_LINE1":"1 49441U 21104AK  22013.91667824  .00074965  00000-0  53440-3 0  9991","CENTER_NAME":"EARTH","RA_OF_ASC_NODE":"189.2413","MEAN_MOTION_DDOT":"0.0000000000000","PERIOD":"91.535","EPHEMERIS_TYPE":"0","CLASSIFICATION_TYPE":"U","SITE":"AFETR","DECAY_DATE":null,"ELEMENT_SET_NO":"999","MEAN_MOTION_DOT":"0.00074965","TLE_LINE2":"2 49441  53.2158 189.2413 0002840  23.1722  17.8526 15.73170429  3671","PERIAPSIS":"347.934","OBJECT_NAME":"STARLINK-3128","APOAPSIS":"351.755","GP_ID":"193813742","ECCENTRICITY":"0.00028400","FILE":"3272312","INCLINATION":"53.2158","BSTAR":"0.00053440000000","REF_FRAME":"TEME"},{"ELEMENT_SET_NO":"999","MEAN_MOTION_DOT":"0.00042055","SITE":"AFETR","CLASSIFICATION_TYPE":"U","DECAY_DATE":null,"OBJECT_NAME":"STARLINK-3098","PERIAPSIS":"347.911","TLE_LINE2":"2 49442  53.2158 189.2488 0002661  17.1252  20.0821 15.73220552  3673","MEAN_MOTION_DDOT":"0.0000000000000","PERIOD":"91.532","EPHEMERIS_TYPE":"0","BSTAR":"0.00030227000000","INCLINATION":"53.2158","REF_FRAME":"TEME","APOAPSIS":"351.492","GP_ID":"193812490","ECCENTRICITY":"0.00026610","FILE":"3272312","LAUNCH_DATE":"2021-11-13","ARG_OF_PERICENTER":"17.1252","SEMIMAJOR_AXIS":"6727.837","MEAN_MOTION":"15.73220552","COUNTRY_CODE":"US","REV_AT_EPOCH":"367","RCS_SIZE":"LARGE","TIME_SYSTEM":"UTC","OBJECT_TYPE":"PAYLOAD","RA_OF_ASC_NODE":"189.2488","EPOCH":"2022-01-13T22:00:00.999936","MEAN_ELEMENT_THEORY":"SGP4","NORAD_CAT_ID":"49442","TLE_LINE1":"1 49442U 21104AL  22013.91667824  .00042055  00000-0  30227-3 0  9995","CENTER_NAME":"EARTH","OBJECT_ID":"2021-104AL","MEAN_ANOMALY":"20.0821"},{"BSTAR":"0.00045026000000","INCLINATION":"53.2153","REF_FRAME":"TEME","APOAPSIS":"351.670","GP_ID":"193812740","FILE":"3272312","ECCENTRICITY":"0.00028560","MEAN_MOTION_DOT":"0.00063066","ELEMENT_SET_NO":"999","DECAY_DATE":null,"SITE":"AFETR","CLASSIFICATION_TYPE":"U","OBJECT_NAME":"STARLINK-3136","TLE_LINE2":"2 49443  53.2153 189.2347 0002856  20.9476  20.9278 15.73204227  3675","PERIAPSIS":"347.827","PERIOD":"91.533","MEAN_MOTION_DDOT":"0.0000000000000","EPHEMERIS_TYPE":"0","RCS_SIZE":"LARGE","OBJECT_TYPE":"PAYLOAD","TIME_SYSTEM":"UTC","RA_OF_ASC_NODE":"189.2347","CENTER_NAME":"EARTH","TLE_LINE1":"1 49443U 21104AM  22013.91667824  .00063066  00000-0  45026-3 0  9994","NORAD_CAT_ID":"49443","MEAN_ELEMENT_THEORY":"SGP4","EPOCH":"2022-01-13T22:00:00.999936","OBJECT_ID":"2021-104AM","MEAN_ANOMALY":"20.9278","LAUNCH_DATE":"2021-11-13","COUNTRY_CODE":"US","MEAN_MOTION":"15.73204227","SEMIMAJOR_AXIS":"6727.883","ARG_OF_PERICENTER":"20.9476","REV_AT_EPOCH":"367"}];
